UNKNOWN                 
1 81824U          26116.57674951  .00004138  00000+0  14086-2 0  9999
2 81824  65.8434 328.6708 0047241 270.7452  88.8230 14.36912707643950
UNKNOWN                 
1 81833U          26116.45380477  .00000248  00000+0  87076-3 0  9991
2 81833  90.2465   5.8966 0028760  33.6607 326.6331 12.93791899469936
UNKNOWN                 
1 81838U          26108.78848112  .00003908  00000+0  84361-3 0  9998
2 81838  67.7580 293.6662 0042975 250.5397 125.4569 14.58747649651857
UNKNOWN                 
1 81844U          26115.13909053  .00003710  00000+0  12797-2 0  9998
2 81844  82.9116 173.1143 0062345 104.1480 256.6648 14.34572659642007
UNKNOWN                 
1 81845U          26115.77345323  .00002228  00000+0  24527-3 0  9991
2 81845  97.6788 303.0600 0085558 223.0186 155.1115 14.85937500669426
UNKNOWN                 
1 81864U          26107.34281095  .00000866  00000+0  34859-3 0  9996
2 81864  65.6680 133.1341 0770647 319.0729  35.4822 13.32850256567577
UNKNOWN                 
1 81865U          26116.21060567  .00001184  00000+0  96155-3 0  9993
2 81865  82.8015 284.8306 0061285 342.4020 139.8834 13.88379645627209
UNKNOWN                 
1 81893U          26115.42754209  .00000852  00000+0  91177-3 0  9999
2 81893 100.0596 111.2290 0018985 288.3192  71.5891 13.77009053622479
UNKNOWN                 
1 81899U          26116.28578044  .00002706  00000+0  62892-2 0  9992
2 81899 102.4131 247.3615 0173025 287.0832  71.1388 13.20690347596749
UNKNOWN                 
1 81921U          26116.59469607  .00002232  00000+0  92242-3 0  9993
2 81921  65.7060 106.9287 0844174  56.1425 311.7052 13.15560442 43525
UNKNOWN                 
1 81946U          26116.63004303  .00000433  00000+0  15661-2 0  9993
2 81946  66.4178 253.1259 0678827 286.4983  82.9191 12.42667167564644
UNKNOWN                 
1 81947U          26116.50384109  .00004464  00000+0  43392-3 0  9996
2 81947  66.0722 151.7502 0367952  57.6995 305.9191 14.54197973650603
UNKNOWN                 
1 81964U          26115.87535643  .00000184  00000+0  19154-3 0  9999
2 81964  66.5842 285.6340 0037581 346.7579  13.2510 13.95887497632761
UNKNOWN                 
1 81969U          26116.36478240  .00012707  00000+0  69299-3 0  9997
2 81969  86.6787  94.8218 0006782  61.2324 298.9596 15.14245842460521
UNKNOWN                 
1 81995U          26115.34391485  .00004128  00000+0  77568-3 0  9994
2 81995  65.7441 133.9400 0512737 231.3913 124.0198 14.05606762622998
UNKNOWN                 
1 82043U          26116.34614537  .00001402  00000+0  39060-3 0  9993
2 82043  97.9471 258.9532 0229580  38.7950 322.9470 14.33392225593129
UNKNOWN                 
1 82051U          26116.51252183  .00005911  00000+0  18948-2 0  9996
2 82051  98.7388 209.1170 0090651 219.6589 139.7945 14.37542691591760
UNKNOWN                 
1 82073U          26116.61702981  .00002124  00000+0  54273-3 0  9992
2 82073  97.7334 184.8612 0204274 235.3214 122.8578 14.39656850594529
UNKNOWN                 
1 82139U          26114.15085137  .00001778  00000+0  89319-3 0  9992
2 82139  99.0083 188.5897 0081195  28.8836 331.6796 14.16127868498852
UNKNOWN                 
1 82162U          26115.08591384  .00002808  00000+0  41399-2 0  9997
2 82162 100.4680  52.2921 0048907 274.6757  84.8792 13.54659475522351
UNKNOWN                 
1 82180U          26115.40526960  .00025348  00000+0  32671-2 0  9998
2 82180  65.6507 268.9481 0287821 147.8777 214.0234 14.56009202621179
UNKNOWN                 
1 82189U          26116.37914935  .00000214  00000+0  83624-4 0  9998
2 82189  74.0334 161.4254 0017448 316.3902  43.5870 14.35310909651736
UNKNOWN                 
1 82199U          26115.02553398  .00000436  00000+0  36365-3 0  9997
2 82199  82.9643 133.6872 0037767  21.3268   7.1278 13.85932762628158
UNKNOWN                 
1 82205U          26115.69133235  .00001112  00000+0  33044-3 0  9995
2 82205  63.0078 224.7755 0498450 306.7741  48.8521 13.94163448626671
UNKNOWN                 
1 82223U          26115.67548593  .00001901  00000+0  10304-2 0  9999
2 82223  99.3126  11.8560 0068830 332.8067  26.9506 14.12568772467697
UNKNOWN                 
1 82250U          26107.71851539  .00001864  00000+0  96657-3 0  9996
2 82250  98.9063  17.8280 0068321 193.6295 195.9356 14.14848813634446
UNKNOWN                 
1 82272U          26116.53836042  .00000379  00000+0  13081-2 0  9991
2 82272  67.5256 316.5991 0755947  19.6797 343.1776 12.33689535288569
UNKNOWN                 
1 82303U          26114.64877155  .00026012  00000+0  19257-1 0  9998
2 82303  81.9170 247.6370 0049709 257.0358 122.2498 13.94457611532900
UNKNOWN                 
1 82311U          26115.07267109  .00000481  00000+0  73685-3 0  9996
2 82311  99.4171 167.7834 0106318 331.5094  28.0258 13.54718159568376
UNKNOWN                 
1 82363U          26115.70249248  .00000168  00000+0  36065-3 0  9990
2 82363  66.9369 267.1038 0451173  79.3354 285.8148 13.15746176307885
UNKNOWN                 
1 82369U          26116.49252308  .00000075  00000+0  80364-4 0  9993
2 82369  98.8916 132.4778 0082752 327.0316  32.5703 13.98252296576004
UNKNOWN                 
1 82381U          26116.09655729  .00026166  00000+0  28448-2 0  9999
2 82381  98.3883 352.8759 0009782  69.0042 291.2218 14.88008908530749
UNKNOWN                 
1 82402U          26115.92272616  .00006709  00000+0  46552-3 0  9992
2 82402  86.6562  97.5234 0009502  54.0630 306.1486 15.05392480474645
UNKNOWN                 
1 82432U          26114.90119383  .00001113  00000+0  23780-3 0  9995
2 82432  74.0044  86.4806 0057063 219.0226 140.6816 14.59094746502322
UNKNOWN                 
1 82448U          26116.01835453  .00005630  00000+0  38768-3 0  9999
2 82448  85.8672 127.4882 0011228 122.1527 238.0798 15.05617978457237
UNKNOWN                 
1 82453U          26115.14835849  .00000012  00000+0  43023-3 0  9996
2 82453 102.1994  76.5428 0093682 321.5863  37.8555 12.39715384562591
UNKNOWN                 
1 82458U          26111.96553979  .00002195  00000+0  97394-3 0  9992
2 82458  66.5129 203.9224 0061263 285.1746  74.2577 14.23940852628579
UNKNOWN                 
1 82484U          26116.49046957  .00000134  00000+0  25017-3 0  9991
2 82484  99.3443 136.1464 0044191 211.2225 148.6288 13.55853973608896
UNKNOWN                 
1 82494U          26113.02598540  .00011205  00000+0  11203-2 0  9990
2 82494  74.0042 119.1113 0009853 246.4595 113.5552 14.91491953104501
UNKNOWN                 
1 82500U          26115.62301256  .00003107  00000+0  13894-2 0  9992
2 82500  70.9647  80.2320 0121561 270.1205  88.5991 14.19536138637948
UNKNOWN                 
1 82524U          26116.45915743  .00006354  00000+0  19705-2 0  9996
2 82524  73.2792 283.0469 0131592  45.9690 345.7961 14.36455818596379
UNKNOWN                 
1 82529U          26113.18328097  .00001155  00000+0  18290-2 0  9990
2 82529  99.7773 197.3723 0238563 279.4971 106.5213 13.41266480607363
UNKNOWN                 
1 82560U          26115.13810028  .00000839  00000+0  70887-3 0  9991
2 82560 100.0006  72.6802 0010589 323.9237  54.1178 13.91030369630412
UNKNOWN                 
1 82597U          26112.85407543  .00000894  00000+0  31865-3 0  9995
2 82597  66.7688 162.5848 0096152 216.2119 143.2449 14.36294479647804
UNKNOWN                 
1 82617U          26114.65898594  .00000327  00000+0  91705-4 0  9999
2 82617  74.0290 354.1068 0039310 264.5172  95.1504 14.49605814656089
UNKNOWN                 
1 82627U          26116.54013267  .00000435  00000+0  11059-2 0  9998
2 82627  82.4773 152.5094 0019312 127.2492  25.2727 13.16502352596561
UNKNOWN                 
1 82642U          26116.49649734  .00001272  00000+0  71675-3 0  9994
2 82642  98.9736  31.1758 0133128 219.7421 139.3936 14.07810229635096
UNKNOWN                 
1 82683U          26115.11635911  .00000654  00000+0  25985-3 0  9995
2 82683  98.1525 178.9676 0209386   5.6454 354.7014 14.20508965481204
UNKNOWN                 
1 82693U          26114.70332973  .00001964  00000+0  22689-2 0  9994
2 82693 100.5282  95.5064 0044986  52.7389 307.7844 13.70258304571966
UNKNOWN                 
1 82698U          26116.10551503  .00001063  00000+0  64799-3 0  9996
2 82698  61.6062 150.4367 0692266 339.4972  17.9442 13.29953666556249
UNKNOWN                 
1 82708U          26115.34617557  .00000691  00000+0  27828-2 0  9992
2 82708 102.1556 336.4253 0068112  14.8489 345.4583 12.90821587540751
UNKNOWN                 
1 82729U          26094.57995214 -.00000001  00000+0  14194-3 0  9994
2 82729  67.9711 310.7450 0835282 293.8433  57.7215 12.17870007548941
UNKNOWN                 
1 82739U          26115.92702906  .00000941  00000+0  80725-3 0  9997
2 82739  99.1002 272.7633 0169410 293.7823 221.4715 13.83041679624654
UNKNOWN                 
1 82741U          26116.50204962  .00001858  00000+0  20395-2 0  9998
2 82741 102.8419 200.3714 0193401 324.0182  34.8056 13.66632181615481
UNKNOWN                 
1 82783U          26116.23394052  .00001671  00000+0  48402-2 0  9996
2 82783  90.3493  42.4882 0024419  99.5928 260.7960 13.09181509521957
UNKNOWN                 
1 82798U          26114.69454758  .00001593  00000+0  68954-3 0  9998
2 82798  82.9476  85.1796 0031012 124.1245  53.5753 14.23530488331287
UNKNOWN                 
1 82820U          26114.94401409  .00001849  00000+0  64683-3 0  9996
2 82820  99.7974 298.5485 0047572 356.6957   3.3904 14.35996610644742
UNKNOWN                 
1 82854U          26103.86363345  .00000917  00000+0  70691-3 0  9999
2 82854  82.6905 328.7876 0128892 295.9220  62.8705 13.88301386624741
UNKNOWN                 
1 82873U          26116.21212092  .00003206  00000+0  13699-2 0  9993
2 82873  99.9937  33.8743 0037304 271.8155  87.8748 14.25479855640383
